[{"OBJECT_NAME":"ONEWEB-0373","OBJECT_ID":"2021-090W","EPOCH":"2026-04-30T23:48:14.391072","MEAN_MOTION":13.20770552,"ECCENTRICITY":0.0001755,"INCLINATION":87.9144,"RA_OF_ASC_NODE":283.8602,"ARG_OF_PERICENTER":98.1212,"MEAN_ANOMALY":262.0121,"EPHEMERIS_TYPE":0,"CLASSIFICATION_TYPE":"U","NORAD_CAT_ID":49299,"ELEMENT_SET_NO":999,"REV_AT_EPOCH":22479,"BSTAR":-0.00011864,"MEAN_MOTION_DOT":-3.5e-07,"MEAN_MOTION_DDOT":0.0},{"OBJECT_NAME":"ONEWEB-0374","OBJECT_ID":"2021-090X","EPOCH":"2026-05-01T00:02:36.675168","MEAN_MOTION":13.14504117,"ECCENTRICITY":0.0002143,"INCLINATION":87.8926,"RA_OF_ASC_NODE":299.1129,"ARG_OF_PERICENTER":107.4939,"MEAN_ANOMALY":252.6425,"EPHEMERIS_TYPE":0,"CLASSIFICATION_TYPE":"U","NORAD_CAT_ID":49300,"ELEMENT_SET_NO":999,"REV_AT_EPOCH":22136,"BSTAR":0.00035804,"MEAN_MOTION_DOT":1.46e-06,"MEAN_MOTION_DDOT":0.0},{"OBJECT_NAME":"ONEWEB-0375","OBJECT_ID":"2021-090Y","EPOCH":"2026-05-01T04:57:19.099584","MEAN_MOTION":13.20752312,"ECCENTRICITY":0.0002012,"INCLINATION":87.9146,"RA_OF_ASC_NODE":283.8072,"ARG_OF_PERICENTER":113.0193,"MEAN_ANOMALY":247.1152,"EPHEMERIS_TYPE":0,"CLASSIFICATION_TYPE":"U","NORAD_CAT_ID":49301,"ELEMENT_SET_NO":999,"REV_AT_EPOCH":22432,"BSTAR":0.0092276,"MEAN_MOTION_DOT":3.765e-05,"MEAN_MOTION_DDOT":0.0},{"OBJECT_NAME":"ONEWEB-0376","OBJECT_ID":"2021-090Z","EPOCH":"2026-05-01T06:11:04.898976","MEAN_MOTION":13.19725856,"ECCENTRICITY":0.0001833,"INCLINATION":87.9156,"RA_OF_ASC_NODE":314.3217,"ARG_OF_PERICENTER":83.5025,"MEAN_ANOMALY":276.6316,"EPHEMERIS_TYPE":0,"CLASSIFICATION_TYPE":"U","NORAD_CAT_ID":49302,"ELEMENT_SET_NO":999,"REV_AT_EPOCH":22026,"BSTAR":0.00027288000000000003,"MEAN_MOTION_DOT":1.22e-06,"MEAN_MOTION_DDOT":0.0},{"OBJECT_NAME":"ONEWEB-0377","OBJECT_ID":"2021-090AA","EPOCH":"2026-05-01T04:37:04.583424","MEAN_MOTION":13.20771618,"ECCENTRICITY":0.0001603,"INCLINATION":87.9146,"RA_OF_ASC_NODE":283.8119,"ARG_OF_PERICENTER":100.3189,"MEAN_ANOMALY":259.8125,"EPHEMERIS_TYPE":0,"CLASSIFICATION_TYPE":"U","NORAD_CAT_ID":49303,"ELEMENT_SET_NO":999,"REV_AT_EPOCH":22431,"BSTAR":-3.1778000000000003e-06,"MEAN_MOTION_DOT":1.2e-07,"MEAN_MOTION_DDOT":0.0},{"OBJECT_NAME":"ONEWEB-0378","OBJECT_ID":"2021-090AB","EPOCH":"2026-05-01T05:08:52.492416","MEAN_MOTION":13.20770093,"ECCENTRICITY":0.0001887,"INCLINATION":87.9141,"RA_OF_ASC_NODE":283.8156,"ARG_OF_PERICENTER":98.5251,"MEAN_ANOMALY":261.6097,"EPHEMERIS_TYPE":0,"CLASSIFICATION_TYPE":"U","NORAD_CAT_ID":49304,"ELEMENT_SET_NO":999,"REV_AT_EPOCH":22358,"BSTAR":4.1989e-05,"MEAN_MOTION_DOT":3e-07,"MEAN_MOTION_DDOT":0.0},{"OBJECT_NAME":"ONEWEB-0379","OBJECT_ID":"2021-090AC","EPOCH":"2026-04-30T23:55:46.203456","MEAN_MOTION":13.14503574,"ECCENTRICITY":0.0001848,"INCLINATION":87.8926,"RA_OF_ASC_NODE":299.1247,"ARG_OF_PERICENTER":95.8307,"MEAN_ANOMALY":264.3033,"EPHEMERIS_TYPE":0,"CLASSIFICATION_TYPE":"U","NORAD_CAT_ID":49305,"ELEMENT_SET_NO":999,"REV_AT_EPOCH":22136,"BSTAR":2.0223e-05,"MEAN_MOTION_DOT":2e-07,"MEAN_MOTION_DDOT":0.0},{"OBJECT_NAME":"ONEWEB-0380","OBJECT_ID":"2021-090AD","EPOCH":"2026-05-01T02:28:10.409664","MEAN_MOTION":13.19725314,"ECCENTRICITY":0.0001709,"INCLINATION":87.9148,"RA_OF_ASC_NODE":314.3624,"ARG_OF_PERICENTER":96.1045,"MEAN_ANOMALY":264.0283,"EPHEMERIS_TYPE":0,"CLASSIFICATION_TYPE":"U","NORAD_CAT_ID":49306,"ELEMENT_SET_NO":999,"REV_AT_EPOCH":22021,"BSTAR":0.00016963000000000001,"MEAN_MOTION_DOT":8.1e-07,"MEAN_MOTION_DDOT":0.0},{"OBJECT_NAME":"ONEWEB-0381","OBJECT_ID":"2021-090AE","EPOCH":"2026-05-01T04:32:17.573856","MEAN_MOTION":13.20772561,"ECCENTRICITY":0.0001917,"INCLINATION":87.9148,"RA_OF_ASC_NODE":283.8171,"ARG_OF_PERICENTER":102.5755,"MEAN_ANOMALY":257.5593,"EPHEMERIS_TYPE":0,"CLASSIFICATION_TYPE":"U","NORAD_CAT_ID":49307,"ELEMENT_SET_NO":999,"REV_AT_EPOCH":22362,"BSTAR":-0.00082554,"MEAN_MOTION_DOT":-3.23e-06,"MEAN_MOTION_DDOT":0.0},{"OBJECT_NAME":"ONEWEB-0382","OBJECT_ID":"2021-090AF","EPOCH":"2026-04-30T22:46:50.662272","MEAN_MOTION":13.20773279,"ECCENTRICITY":0.0002013,"INCLINATION":87.9146,"RA_OF_ASC_NODE":283.8605,"ARG_OF_PERICENTER":101.9315,"MEAN_ANOMALY":258.2044,"EPHEMERIS_TYPE":0,"CLASSIFICATION_TYPE":"U","NORAD_CAT_ID":49308,"ELEMENT_SET_NO":999,"REV_AT_EPOCH":22358,"BSTAR":0.0002177,"MEAN_MOTION_DOT":1.02e-06,"MEAN_MOTION_DDOT":0.0},{"OBJECT_NAME":"ONEWEB-0383","OBJECT_ID":"2021-090AG","EPOCH":"2026-05-01T05:15:28.384128","MEAN_MOTION":13.14502591,"ECCENTRICITY":0.0001935,"INCLINATION":87.8934,"RA_OF_ASC_NODE":299.0688,"ARG_OF_PERICENTER":93.9657,"MEAN_ANOMALY":266.1694,"EPHEMERIS_TYPE":0,"CLASSIFICATION_TYPE":"U","NORAD_CAT_ID":49309,"ELEMENT_SET_NO":999,"REV_AT_EPOCH":22142,"BSTAR":-0.00049988,"MEAN_MOTION_DOT":-1.73e-06,"MEAN_MOTION_DDOT":0.0},{"OBJECT_NAME":"ONEWEB-0384","OBJECT_ID":"2021-090AH","EPOCH":"2026-04-30T22:32:15.464832","MEAN_MOTION":13.20810415,"ECCENTRICITY":0.0002268,"INCLINATION":87.9146,"RA_OF_ASC_NODE":283.9057,"ARG_OF_PERICENTER":102.2642,"MEAN_ANOMALY":257.8746,"EPHEMERIS_TYPE":0,"CLASSIFICATION_TYPE":"U","NORAD_CAT_ID":49310,"ELEMENT_SET_NO":999,"REV_AT_EPOCH":22359,"BSTAR":0.00023774,"MEAN_MOTION_DOT":1.1e-06,"MEAN_MOTION_DDOT":0.0},{"OBJECT_NAME":"ONEWEB-0385","OBJECT_ID":"2021-090AJ","EPOCH":"2026-04-30T22:35:30.418656","MEAN_MOTION":13.20770246,"ECCENTRICITY":0.0001949,"INCLINATION":87.9146,"RA_OF_ASC_NODE":283.8665,"ARG_OF_PERICENTER":99.8921,"MEAN_ANOMALY":260.2433,"EPHEMERIS_TYPE":0,"CLASSIFICATION_TYPE":"U","NORAD_CAT_ID":49311,"ELEMENT_SET_NO":999,"REV_AT_EPOCH":22356,"BSTAR":3.4075e-05,"MEAN_MOTION_DOT":2.7e-07,"MEAN_MOTION_DDOT":0.0},{"OBJECT_NAME":"ONEWEB-0386","OBJECT_ID":"2021-090AK","EPOCH":"2026-05-01T04:27:46.285632","MEAN_MOTION":13.20769486,"ECCENTRICITY":0.0002023,"INCLINATION":87.9156,"RA_OF_ASC_NODE":283.8061,"ARG_OF_PERICENTER":99.2666,"MEAN_ANOMALY":260.8697,"EPHEMERIS_TYPE":0,"CLASSIFICATION_TYPE":"U","NORAD_CAT_ID":49312,"ELEMENT_SET_NO":999,"REV_AT_EPOCH":22361,"BSTAR":3.5680000000000004e-05,"MEAN_MOTION_DOT":2.7e-07,"MEAN_MOTION_DDOT":0.0},{"OBJECT_NAME":"ONEWEB-0387","OBJECT_ID":"2021-090AL","EPOCH":"2026-04-30T22:37:46.789824","MEAN_MOTION":13.2077066,"ECCENTRICITY":0.0001686,"INCLINATION":87.9136,"RA_OF_ASC_NODE":283.8837,"ARG_OF_PERICENTER":106.2564,"MEAN_ANOMALY":253.8755,"EPHEMERIS_TYPE":0,"CLASSIFICATION_TYPE":"U","NORAD_CAT_ID":49313,"ELEMENT_SET_NO":999,"REV_AT_EPOCH":22358,"BSTAR":0.00035157,"MEAN_MOTION_DOT":1.56e-06,"MEAN_MOTION_DDOT":0.0},{"OBJECT_NAME":"ONEWEB-0388","OBJECT_ID":"2021-090AM","EPOCH":"2026-05-01T05:59:42.302688","MEAN_MOTION":13.1972484,"ECCENTRICITY":0.0001903,"INCLINATION":87.9149,"RA_OF_ASC_NODE":314.3309,"ARG_OF_PERICENTER":92.0659,"MEAN_ANOMALY":268.0692,"EPHEMERIS_TYPE":0,"CLASSIFICATION_TYPE":"U","NORAD_CAT_ID":49314,"ELEMENT_SET_NO":999,"REV_AT_EPOCH":22022,"BSTAR":0.00027399,"MEAN_MOTION_DOT":1.23e-06,"MEAN_MOTION_DDOT":0.0}]