ONEWEB-0373             
1 49299U 21090W   26120.99183323 -.00000035  00000+0 -11864-3 0  9996
2 49299  87.9144 283.8602 0001755  98.1212 262.0121 13.20770552224798
ONEWEB-0374             
1 49300U 21090X   26121.00181337  .00000146  00000+0  35804-3 0  9996
2 49300  87.8926 299.1129 0002143 107.4939 252.6425 13.14504117221361
ONEWEB-0375             
1 49301U 21090Y   26121.20647106  .00003765  00000+0  92276-2 0  9995
2 49301  87.9146 283.8072 0002012 113.0193 247.1152 13.20752312224328
ONEWEB-0376             
1 49302U 21090Z   26121.25769559  .00000122  00000+0  27288-3 0  9994
2 49302  87.9156 314.3217 0001833  83.5025 276.6316 13.19725856220265
ONEWEB-0377             
1 49303U 21090AA  26121.19241416  .00000012  00000+0 -31778-5 0  9995
2 49303  87.9146 283.8119 0001603 100.3189 259.8125 13.20771618224310
ONEWEB-0378             
1 49304U 21090AB  26121.21449644  .00000030  00000+0  41989-4 0  9995
2 49304  87.9141 283.8156 0001887  98.5251 261.6097 13.20770093223582
ONEWEB-0379             
1 49305U 21090AC  26120.99706254  .00000020  00000+0  20223-4 0  9990
2 49305  87.8926 299.1247 0001848  95.8307 264.3033 13.14503574221368
ONEWEB-0380             
1 49306U 21090AD  26121.10289826  .00000081  00000+0  16963-3 0  9998
2 49306  87.9148 314.3624 0001709  96.1045 264.0283 13.19725314220214
ONEWEB-0381             
1 49307U 21090AE  26121.18909229 -.00000323  00000+0 -82554-3 0  9993
2 49307  87.9148 283.8171 0001917 102.5755 257.5593 13.20772561223620
ONEWEB-0382             
1 49308U 21090AF  26120.94919748  .00000102  00000+0  21770-3 0  9990
2 49308  87.9146 283.8605 0002013 101.9315 258.2044 13.20773279223585
ONEWEB-0383             
1 49309U 21090AG  26121.21907852 -.00000173  00000+0 -49988-3 0  9996
2 49309  87.8934 299.0688 0001935  93.9657 266.1694 13.14502591221421
ONEWEB-0384             
1 49310U 21090AH  26120.93906788  .00000110  00000+0  23774-3 0  9997
2 49310  87.9146 283.9057 0002268 102.2642 257.8746 13.20810415223598
ONEWEB-0385             
1 49311U 21090AJ  26120.94132429  .00000027  00000+0  34075-4 0  9996
2 49311  87.9146 283.8665 0001949  99.8921 260.2433 13.20770246223564
ONEWEB-0386             
1 49312U 21090AK  26121.18595238  .00000027  00000+0  35680-4 0  9998
2 49312  87.9156 283.8061 0002023  99.2666 260.8697 13.20769486223618
ONEWEB-0387             
1 49313U 21090AL  26120.94290266  .00000156  00000+0  35157-3 0  9996
2 49313  87.9136 283.8837 0001686 106.2564 253.8755 13.20770660223587
ONEWEB-0388             
1 49314U 21090AM  26121.24979517  .00000123  00000+0  27399-3 0  9997
2 49314  87.9149 314.3309 0001903  92.0659 268.0692 13.19724840220228
